[{"OBJECT_NAME":"GEESAT-4 10","OBJECT_ID":"2025-170K","EPOCH":"2026-03-09T23:21:58.377312","MEAN_MOTION":15.17890105,"ECCENTRICITY":0.0016786,"INCLINATION":49.9867,"RA_OF_ASC_NODE":229.1245,"ARG_OF_PERICENTER":279.3492,"MEAN_ANOMALY":80.5562,"EPHEMERIS_TYPE":0,"CLASSIFICATION_TYPE":"U","NORAD_CAT_ID":65128,"ELEMENT_SET_NO":999,"REV_AT_EPOCH":3230,"BSTAR":0.00064105503,"MEAN_MOTION_DOT":0.0001293,"MEAN_MOTION_DDOT":0},{"OBJECT_NAME":"CZ-6A DEB","OBJECT_ID":"2022-151AAS","EPOCH":"2026-03-09T03:45:24.122016","MEAN_MOTION":15.06999256,"ECCENTRICITY":0.00393195,"INCLINATION":98.6364,"RA_OF_ASC_NODE":147.7741,"ARG_OF_PERICENTER":181.1546,"MEAN_ANOMALY":178.9594,"EPHEMERIS_TYPE":0,"CLASSIFICATION_TYPE":"U","NORAD_CAT_ID":55894,"ELEMENT_SET_NO":999,"REV_AT_EPOCH":17150,"BSTAR":0.0072812999,"MEAN_MOTION_DOT":0.00112507,"MEAN_MOTION_DDOT":0}]
